NORAD_CAT_ID,OBJECT_NAME,OBJECT_TYPE,EPOCH,MEAN_MOTION,ECCENTRICITY,INCLINATION,RA_OF_ASC_NODE,ARG_OF_PERICENTER,MEAN_ANOMALY,BSTAR,MEAN_MOTION_DOT,MEAN_MOTION_DDOT,TLE_LINE0,TLE_LINE1,TLE_LINE2,SEMIMAJOR_AXIS,PERIOD,APOGEE,PERIGEE,DECAYED
51982.0,STARLINK-3650,PAYLOAD,2022-03-16 14:00:01,15.82789521,0.0001079,53.2173,105.1655,81.655,156.3866,-0.0044802,-0.00875537,0.0,0 STARLINK-3650,1 51982U 22025AC  22075.58334491 -.00875537  00000-0 -44802-2 0  9996,2 51982  53.2173 105.1655 0001079  81.6550 156.3866 15.82789521  2389,6700.693,90.979,323.281,321.835,0.0
51982.0,STARLINK-3650,PAYLOAD,2022-03-16 20:00:01,15.82319751,0.000119,53.2176,103.9094,61.5399,161.623,-0.0046047,-0.00879685,0.0,0 STARLINK-3650,1 51982U 22025AC  22075.83334491 -.00879685  00000-0 -46047-2 0  9995,2 51982  53.2176 103.9094 0001190  61.5399 161.6230 15.82319751  1351,6702.019,91.006,324.682,323.087,0.0
51982.0,STARLINK-3650,PAYLOAD,2022-03-17 04:00:00,15.81692796,0.000116,53.2175,102.2387,47.9154,274.7455,-0.0047594,-0.00882489,0.0,0 STARLINK-3650,1 51982U 22025AC  22076.16667824 -.00882489  00000-0 -47594-2 0  9995,2 51982  53.2175 102.2387 0001160  47.9154 274.7455 15.81692796  2472,6703.79,91.042,326.433,324.878,0.0
51982.0,STARLINK-3650,PAYLOAD,2022-03-17 14:00:01,15.8090263,0.0001145,53.2171,100.1533,70.5878,105.3846,-0.004904,-0.00876905,0.0,0 STARLINK-3650,1 51982U 22025AC  22076.58334491 -.00876905  00000-0 -49040-2 0  9996,2 51982  53.2171 100.1533 0001145  70.5878 105.3846 15.80902630  1478,6706.024,91.087,328.657,327.121,0.0
51982.0,STARLINK-3650,PAYLOAD,2022-03-17 22:00:00,15.80271898,0.0001049,53.2174,98.4835,85.145,188.6274,-0.0050352,-0.0087459999999999,0.0,0 STARLINK-3650,1 51982U 22025AC  22076.91667824 -.00874600  00000-0 -50352-2 0  9990,2 51982  53.2174  98.4835 0001049  85.1450 188.6274 15.80271898  1526,6707.808000000001,91.124,330.3769999999999,328.969,0.0
51982.0,STARLINK-3650,PAYLOAD,2022-03-18 04:00:00,15.79801436,0.0001240999999999,53.2178,97.2346,59.5631,197.0605,-0.0051608,-0.00876983,0.0,0 STARLINK-3650,1 51982U 22025AC  22077.16667824 -.00876983  00000-0 -51608-2 0  9999,2 51982  53.2178  97.2346 0001241  59.5631 197.0605 15.79801436  2634,6709.14,91.151,331.837,330.172,0.0
51982.0,STARLINK-3650,PAYLOAD,2022-03-18 14:00:01,15.79015288,0.0001171,53.2171,95.1546,55.726000000000006,51.3718,-0.0053529,-0.00877351,0.0,0 STARLINK-3650,1 51982U 22025AC  22077.58334491 -.00877351  00000-0 -53529-2 0  9990,2 51982  53.2171  95.1546 0001171  55.7260  51.3718 15.79015288  1632,6711.366,91.196,334.017,332.446,0.0
51982.0,STARLINK-3650,PAYLOAD,2022-03-18 22:00:00,15.78384891,0.0001162,53.2172,93.4896,69.8197,132.809,-0.0054945,-0.00875285,0.0,0 STARLINK-3650,1 51982U 22025AC  22077.91667824 -.00875285  00000-0 -54945-2 0  9993,2 51982  53.2172  93.4896 0001162  69.8197 132.8090 15.78384891  1688,6713.153,91.233,335.798,334.23800000000006,0.0
51982.0,STARLINK-3650,PAYLOAD,2022-03-19 02:00:01,15.78070043,0.0001138,53.2175,92.659,58.1922,11.9832,-0.0055695,-0.00874711,0.0,0 STARLINK-3650,1 51982U 22025AC  22078.08335648 -.00874711  00000-0 -55695-2 0  9994,2 51982  53.2175  92.6590 0001138  58.1922  11.9832 15.78070043  2776,6714.045999999999,91.251,336.675,335.147,0.0
51982.0,STARLINK-3650,PAYLOAD,2022-03-19 14:00:01,15.77127229,9.36e-05,53.2171,90.1703,80.5492,310.8682,-0.0058185,-0.00875645,0.0,0 STARLINK-3650,1 51982U 22025AC  22078.58334491 -.00875645  00000-0 -58185-2 0  9998,2 51982  53.2171  90.1703 0000936  80.5492 310.8682 15.77127229  1790,6716.722,91.305,339.215,337.958,0.0
51982.0,STARLINK-3650,PAYLOAD,2022-03-19 20:00:01,15.76652972,0.0001045,53.2175,88.9247,57.2469,314.1886,-0.005922,-0.00872841,0.0,0 STARLINK-3650,1 51982U 22025AC  22078.83334491 -.00872841  00000-0 -59220-2 0  9992,2 51982  53.2175  88.9247 0001045  57.2469 314.1886 15.76652972  2891,6718.069,91.333,340.636,339.232,0.0
51982.0,STARLINK-3650,PAYLOAD,2022-03-19 22:00:01,15.764971,0.0001212,53.2173,88.5098,55.869,68.8763,-0.0059831,-0.00875511,0.0,0 STARLINK-3650,1 51982U 22025AC  22078.91668981 -.00875511  00000-0 -59831-2 0  9990,2 51982  53.2173  88.5098 0001212  55.8690  68.8763 15.76497100  1846,6718.511,91.342,341.191,339.5619999999999,0.0
51982.0,STARLINK-3650,PAYLOAD,2022-03-20 12:00:00,15.75392746,0.000118,53.2172,85.6137,70.5852,125.4804,-0.0062328,-0.00869124,0.0,0 STARLINK-3650,1 51982U 22025AC  22079.50001157 -.00869124  00000-0 -62328-2 0  9990,2 51982  53.2172  85.6137 0001180  70.5852 125.4804 15.75392746  2997,6721.651,91.406,344.309,342.723,0.0
51982.0,STARLINK-3650,PAYLOAD,2022-03-20 14:00:01,15.75239437,0.0001048,53.2172,85.1994,76.2583,232.6725,-0.0063271,-0.00875597,0.0,0 STARLINK-3650,1 51982U 22025AC  22079.58334491 -.00875597  00000-0 -63271-2 0  9997,2 51982  53.2172  85.1994 0001048  76.2583 232.6725 15.75239437  1955,6722.087,91.415,344.656,343.247,0.0
51982.0,STARLINK-3650,PAYLOAD,2022-03-20 22:00:01,15.7460809,0.0001051,53.2172,83.5438,62.7169,337.2739,-0.0064888,-0.0087363,0.0,0 STARLINK-3650,1 51982U 22025AC  22079.91668981 -.00873630  00000-0 -64888-2 0  9999,2 51982  53.2172  83.5438 0001051  62.7169 337.2739 15.74608090  2002,6723.884,91.451,346.455,345.042,0.0
51982.0,STARLINK-3650,PAYLOAD,2022-03-21 04:00:00,15.74138623,0.0001224,53.2174,82.3059,47.2194,330.4518,-0.0066548,-0.00877439,0.0,0 STARLINK-3650,1 51982U 22025AC  22080.16667824 -.00877439  00000-0 -66548-2 0  9999,2 51982  53.2174  82.3059 0001224  47.2194 330.4518 15.74138623  3100,6725.22,91.479,347.909,346.26199999999994,0.0
51982.0,STARLINK-3650,PAYLOAD,2022-03-21 12:00:00,15.733218300000004,9.77e-05,53.2171,80.6558,72.9282,34.4383,-0.0012991,-0.00180021,0.0,0 STARLINK-3650,1 51982U 22025AC  22080.50001157 -.00180021  00000-0 -12991-2 0  9995,2 51982  53.2171  80.6558 0000977  72.9282  34.4383 15.73321830  3158,6727.5480000000025,91.526,350.07,348.756,0.0
51982.0,STARLINK-3650,PAYLOAD,2022-03-21 14:00:01,15.73227139,0.0001136,53.2171,80.2427,74.2955,145.3549,-0.00027917,-0.0003966,0.0,0 STARLINK-3650,1 51982U 22025AC  22080.58334491 -.00039660  00000-0 -27917-3 0  9990,2 51982  53.2171  80.2427 0001136  74.2955 145.3549 15.73227139  2106,6727.818,91.532,350.44699999999995,348.9190000000001,0.0
51982.0,STARLINK-3650,PAYLOAD,2022-03-21 20:00:01,15.73204355,0.0001165,53.2173,79.00399999999998,65.2289,131.1329,5.451499999999999e-06,1.46e-06,0.0,0 STARLINK-3650,1 51982U 22025AC  22080.83334491  .00000146  00000-0  54515-5 0  9999,2 51982  53.2173  79.0040 0001165  65.2289 131.1329 15.73204355  3203,6727.8830000000025,91.533,350.532,348.964,0.0
51982.0,STARLINK-3650,PAYLOAD,2022-03-21 22:00:00,15.73204038,0.0001154,53.2174,78.5913,71.0922,237.5037,2.0402e-06,-3.33e-06,0.0,0 STARLINK-3650,1 51982U 22025AC  22080.91667824 -.00000333  00000-0  20402-5 0  9994,2 51982  53.2174  78.5913 0001154  71.0922 237.5037 15.73204038  2163,6727.884,91.533,350.525,348.972,0.0
51982.0,STARLINK-3650,PAYLOAD,2022-03-22 12:00:00,15.73237813,9.990000000000004e-05,53.2195,75.7155,44.4319,329.8195,0.0002948,0.00041022,0.0,0 STARLINK-3650,1 51982U 22025AC  22081.50001157  .00041022  00000-0  29480-3 0  9993,2 51982  53.2195  75.7155 0000999  44.4319 329.8195 15.73237813  3318,6727.7869999999975,91.531,350.324,348.98,0.0
51982.0,STARLINK-3650,PAYLOAD,2022-03-22 14:00:01,15.73281812,9.8e-05,53.2195,75.3025,51.2258,75.2607,-0.00035996,-0.00051007,0.0,0 STARLINK-3650,1 51982U 22025AC  22081.58334491 -.00051007  00000-0 -35996-3 0  9996,2 51982  53.2195  75.3025 0000980  51.2258  75.2607 15.73281812  2269,6727.6619999999975,91.528,350.186,348.86800000000005,0.0
51982.0,STARLINK-3650,PAYLOAD,2022-03-22 20:00:01,15.73228398,8.89e-05,53.2196,74.064,66.2049,37.056,0.00018048,0.00024815,0.0,0 STARLINK-3650,1 51982U 22025AC  22081.83334491  .00024815  00000-0  18048-3 0  9998,2 51982  53.2196  74.0640 0000889  66.2049  37.0560 15.73228398  3367,6727.814,91.532,350.277,349.081,0.0
51982.0,STARLINK-3650,PAYLOAD,2022-03-22 22:00:01,15.732107199999998,9.79e-05,53.2195,73.6514,70.3023,145.2728,0.00050758,0.00071254,0.0,0 STARLINK-3650,1 51982U 22025AC  22081.91668981  .00071254  00000-0  50758-3 0  9994,2 51982  53.2195  73.6514 0000979  70.3023 145.2728 15.73210720  2322,6727.865,91.533,350.38800000000015,349.071,0.0
51982.0,STARLINK-3650,PAYLOAD,2022-03-23 12:00:00,15.73236941,0.000118,53.2185,70.7672,60.9912,220.2249,-7.7522e-05,-0.00011502,0.0,0 STARLINK-3650,1 51982U 22025AC  22082.50001157 -.00011502  00000-0 -77522-4 0  9997,2 51982  53.2185  70.7672 0001180  60.9912 220.2249 15.73236941  3473,6727.79,91.531,350.449,348.861,0.0
51982.0,STARLINK-3650,PAYLOAD,2022-03-23 14:00:01,15.7327386,0.0001175,53.2185,70.3543,62.8516,330.5963,-0.00071602,-0.00100233,0.0,0 STARLINK-3650,1 51982U 22025AC  22082.58334491 -.00100233  00000-0 -71602-3 0  9997,2 51982  53.2185  70.3543 0001175  62.8516 330.5963 15.73273860  2424,6727.685,91.529,350.34,348.759,0.0
51982.0,STARLINK-3650,PAYLOAD,2022-03-23 22:00:00,15.73191508,9.89e-05,53.2184,68.7031,72.885,49.5342,0.00023873,0.00033003,0.0,0 STARLINK-3650,1 51982U 22025AC  22082.91667824  .00033003  00000-0  23873-3 0  9998,2 51982  53.2184  68.7031 0000989  72.8850  49.5342 15.73191508  2471,6727.919,91.534,350.45,349.119,0.0
51982.0,STARLINK-3650,PAYLOAD,2022-03-24 04:00:00,15.73222191,9.68e-05,53.2185,67.4678,61.1359,37.9845,-0.00042875,-0.00060416,0.0,0 STARLINK-3650,1 51982U 22025AC  22083.16667824 -.00060416  00000-0 -42875-3 0  9999,2 51982  53.2185  67.4678 0000968  61.1359  37.9845 15.73222191  3571,6727.831999999999,91.532,350.348,349.046,0.0
51982.0,STARLINK-3650,PAYLOAD,2022-03-24 14:00:01,15.73216111,9.19e-05,53.218,65.4058,58.1671,242.1036,0.00013965,0.00019037,0.0,0 STARLINK-3650,1 51982U 22025AC  22083.58334491  .00019037  00000-0  13965-3 0  9995,2 51982  53.2180  65.4058 0000919  58.1671 242.1036 15.73216111  2582,6727.849,91.532,350.333,349.096,0.0
